[{"OBJECT_NAME":"STARLINK-6201","OBJECT_ID":"2023-064AQ","EPOCH":"2026-03-06T20:29:16.151424","MEAN_MOTION":16.02236801,"ECCENTRICITY":0.000416,"INCLINATION":69.9953,"RA_OF_ASC_NODE":121.5131,"ARG_OF_PERICENTER":285.526,"MEAN_ANOMALY":74.5493,"EPHEMERIS_TYPE":0,"CLASSIFICATION_TYPE":"U","NORAD_CAT_ID":56486,"ELEMENT_SET_NO":999,"REV_AT_EPOCH":15555,"BSTAR":0.0018281,"MEAN_MOTION_DOT":0.01056831,"MEAN_MOTION_DDOT":0.00058342},{"OBJECT_NAME":"OBJECT H","OBJECT_ID":"2023-085H","EPOCH":"2026-03-06T20:47:15.679680","MEAN_MOTION":15.93621437,"ECCENTRICITY":0.0006779,"INCLINATION":97.4631,"RA_OF_ASC_NODE":192.2346,"ARG_OF_PERICENTER":293.1925,"MEAN_ANOMALY":66.8635,"EPHEMERIS_TYPE":0,"CLASSIFICATION_TYPE":"U","NORAD_CAT_ID":57011,"ELEMENT_SET_NO":999,"REV_AT_EPOCH":15212,"BSTAR":0.0020768,"MEAN_MOTION_DOT":0.00742429,"MEAN_MOTION_DDOT":0.00023308},{"OBJECT_NAME":"SHIYAN-25 (SY-25)","OBJECT_ID":"2023-087A","EPOCH":"2026-03-06T20:12:17.301888","MEAN_MOTION":16.009331,"ECCENTRICITY":0.0012995,"INCLINATION":96.7187,"RA_OF_ASC_NODE":126.9399,"ARG_OF_PERICENTER":245.2365,"MEAN_ANOMALY":114.7563,"EPHEMERIS_TYPE":0,"CLASSIFICATION_TYPE":"U","NORAD_CAT_ID":57047,"ELEMENT_SET_NO":999,"REV_AT_EPOCH":15843,"BSTAR":-3.2542e-5,"MEAN_MOTION_DOT":-0.00018184,"MEAN_MOTION_DDOT":2.0715e-6},{"OBJECT_NAME":"STARLINK-6151","OBJECT_ID":"2023-090T","EPOCH":"2026-03-06T16:49:44.901696","MEAN_MOTION":16.29944221,"ECCENTRICITY":0.0011271,"INCLINATION":42.9651,"RA_OF_ASC_NODE":166.0906,"ARG_OF_PERICENTER":357.0303,"MEAN_ANOMALY":3.0517,"EPHEMERIS_TYPE":0,"CLASSIFICATION_TYPE":"U","NORAD_CAT_ID":57118,"ELEMENT_SET_NO":999,"REV_AT_EPOCH":15140,"BSTAR":0.00080752,"MEAN_MOTION_DOT":0.03923824,"MEAN_MOTION_DDOT":9.1722e-6},{"OBJECT_NAME":"STARLINK-30210","OBJECT_ID":"2023-096C","EPOCH":"2026-03-06T15:50:34.373184","MEAN_MOTION":16.08937256,"ECCENTRICITY":0.00219925,"INCLINATION":42.9612,"RA_OF_ASC_NODE":154.3736,"ARG_OF_PERICENTER":21.2861,"MEAN_ANOMALY":96.7846,"EPHEMERIS_TYPE":0,"CLASSIFICATION_TYPE":"U","NORAD_CAT_ID":57292,"ELEMENT_SET_NO":999,"REV_AT_EPOCH":14802,"BSTAR":0.0012909003,"MEAN_MOTION_DOT":0.01213888,"MEAN_MOTION_DDOT":0.00089921212},{"OBJECT_NAME":"STARLINK-30232","OBJECT_ID":"2023-096P","EPOCH":"2026-03-06T14:25:24.258144","MEAN_MOTION":16.10033251,"ECCENTRICITY":0.00212454,"INCLINATION":42.9685,"RA_OF_ASC_NODE":154.3241,"ARG_OF_PERICENTER":22.677,"MEAN_ANOMALY":337.5045,"EPHEMERIS_TYPE":0,"CLASSIFICATION_TYPE":"U","NORAD_CAT_ID":57303,"ELEMENT_SET_NO":999,"REV_AT_EPOCH":14800,"BSTAR":0.0022539602,"MEAN_MOTION_DOT":0.02153392,"MEAN_MOTION_DDOT":0.0042533776},{"OBJECT_NAME":"QIANKUN-1","OBJECT_ID":"2023-103B","EPOCH":"2026-03-06T00:46:17.334048","MEAN_MOTION":16.0832067,"ECCENTRICITY":0.00327946,"INCLINATION":96.1943,"RA_OF_ASC_NODE":116.7916,"ARG_OF_PERICENTER":171.0368,"MEAN_ANOMALY":189.1511,"EPHEMERIS_TYPE":0,"CLASSIFICATION_TYPE":"U","NORAD_CAT_ID":57422,"ELEMENT_SET_NO":999,"REV_AT_EPOCH":15072,"BSTAR":2.45338e-7,"MEAN_MOTION_DOT":-3.11e-6,"MEAN_MOTION_DDOT":1.683369e-6},{"OBJECT_NAME":"OBJECT B","OBJECT_ID":"2023-104B","EPOCH":"2026-03-06T20:23:50.840736","MEAN_MOTION":15.95006754,"ECCENTRICITY":0.0003298,"INCLINATION":97.2687,"RA_OF_ASC_NODE":154.4383,"ARG_OF_PERICENTER":311.8555,"MEAN_ANOMALY":48.2439,"EPHEMERIS_TYPE":0,"CLASSIFICATION_TYPE":"U","NORAD_CAT_ID":57425,"ELEMENT_SET_NO":999,"REV_AT_EPOCH":14762,"BSTAR":0.0008874,"MEAN_MOTION_DOT":0.00341259,"MEAN_MOTION_DDOT":4.778e-5},{"OBJECT_NAME":"INTUITION-1","OBJECT_ID":"2023-174CW","EPOCH":"2026-03-06T19:56:09.297888","MEAN_MOTION":15.92958943,"ECCENTRICITY":0.0003574,"INCLINATION":97.3745,"RA_OF_ASC_NODE":161.9842,"ARG_OF_PERICENTER":239.3031,"MEAN_ANOMALY":120.7891,"EPHEMERIS_TYPE":0,"CLASSIFICATION_TYPE":"U","NORAD_CAT_ID":58565,"ELEMENT_SET_NO":999,"REV_AT_EPOCH":13042,"BSTAR":0.001424,"MEAN_MOTION_DOT":0.00491677,"MEAN_MOTION_DDOT":9.7222e-5},{"OBJECT_NAME":"STARLINK-31145","OBJECT_ID":"2024-011D","EPOCH":"2026-03-06T20:00:00.999360","MEAN_MOTION":15.94329824,"ECCENTRICITY":0.0012014,"INCLINATION":53.1224,"RA_OF_ASC_NODE":16.8196,"ARG_OF_PERICENTER":99.3781,"MEAN_ANOMALY":29.482,"EPHEMERIS_TYPE":0,"CLASSIFICATION_TYPE":"U","NORAD_CAT_ID":58768,"ELEMENT_SET_NO":999,"REV_AT_EPOCH":601,"BSTAR":0.0013035,"MEAN_MOTION_DOT":0.00500763,"MEAN_MOTION_DDOT":0.00011173},{"OBJECT_NAME":"OBJECT B","OBJECT_ID":"2024-085B","EPOCH":"2026-03-06T20:50:26.558880","MEAN_MOTION":15.96348808,"ECCENTRICITY":0.0010252,"INCLINATION":97.3362,"RA_OF_ASC_NODE":158.0271,"ARG_OF_PERICENTER":297.6976,"MEAN_ANOMALY":62.326,"EPHEMERIS_TYPE":0,"CLASSIFICATION_TYPE":"U","NORAD_CAT_ID":59678,"ELEMENT_SET_NO":999,"REV_AT_EPOCH":10296,"BSTAR":0.0014165,"MEAN_MOTION_DOT":0.00587979,"MEAN_MOTION_DDOT":0.00014749},{"OBJECT_NAME":"OBJECT D","OBJECT_ID":"2024-095D","EPOCH":"2026-03-05T01:21:24.857280","MEAN_MOTION":15.92155338,"ECCENTRICITY":0.00052609,"INCLINATION":97.5303,"RA_OF_ASC_NODE":167.7716,"ARG_OF_PERICENTER":254.9341,"MEAN_ANOMALY":105.1351,"EPHEMERIS_TYPE":0,"CLASSIFICATION_TYPE":"U","NORAD_CAT_ID":59813,"ELEMENT_SET_NO":999,"REV_AT_EPOCH":10015,"BSTAR":0.001780105,"MEAN_MOTION_DOT":0.00589793,"MEAN_MOTION_DDOT":0.0001403731},{"OBJECT_NAME":"RUZAEVKA 390 (RS44S)","OBJECT_ID":"2024-199AH","EPOCH":"2026-03-06T20:47:43.797696","MEAN_MOTION":16.10678271,"ECCENTRICITY":0.0002675,"INCLINATION":97.2791,"RA_OF_ASC_NODE":308.0483,"ARG_OF_PERICENTER":171.9596,"MEAN_ANOMALY":188.1731,"EPHEMERIS_TYPE":0,"CLASSIFICATION_TYPE":"U","NORAD_CAT_ID":61766,"ELEMENT_SET_NO":999,"REV_AT_EPOCH":11907,"BSTAR":0.0017751,"MEAN_MOTION_DOT":0.01660036,"MEAN_MOTION_DDOT":0.0021208},{"OBJECT_NAME":"BANDWAGON-2 OBJECT X","OBJECT_ID":"2024-247X","EPOCH":"2026-03-06T09:36:00.604800","MEAN_MOTION":15.94854751,"ECCENTRICITY":0.00122722,"INCLINATION":44.9851,"RA_OF_ASC_NODE":72.4254,"ARG_OF_PERICENTER":91.4129,"MEAN_ANOMALY":268.8186,"EPHEMERIS_TYPE":0,"CLASSIFICATION_TYPE":"U","NORAD_CAT_ID":62398,"ELEMENT_SET_NO":999,"REV_AT_EPOCH":6797,"BSTAR":0.002231542,"MEAN_MOTION_DOT":0.00892043,"MEAN_MOTION_DDOT":0.00035620325},{"OBJECT_NAME":"SZ-19 DEB","OBJECT_ID":"2024-194E","EPOCH":"2026-03-06T00:07:42.468096","MEAN_MOTION":16.16532594,"ECCENTRICITY":0.00118014,"INCLINATION":41.4586,"RA_OF_ASC_NODE":184.8975,"ARG_OF_PERICENTER":20.05,"MEAN_ANOMALY":340.082,"EPHEMERIS_TYPE":0,"CLASSIFICATION_TYPE":"U","NORAD_CAT_ID":63801,"ELEMENT_SET_NO":999,"REV_AT_EPOCH":4862,"BSTAR":0.00047603013,"MEAN_MOTION_DOT":0.00746324,"MEAN_MOTION_DDOT":0.00034477917},{"OBJECT_NAME":"COSMOS 2591","OBJECT_ID":"2025-182A","EPOCH":"2026-03-05T17:44:49.431264","MEAN_MOTION":15.9640134,"ECCENTRICITY":0.00079445,"INCLINATION":96.5938,"RA_OF_ASC_NODE":358.0583,"ARG_OF_PERICENTER":172.1859,"MEAN_ANOMALY":187.9545,"EPHEMERIS_TYPE":0,"CLASSIFICATION_TYPE":"U","NORAD_CAT_ID":65267,"ELEMENT_SET_NO":999,"REV_AT_EPOCH":3119,"BSTAR":0.00018325759,"MEAN_MOTION_DOT":0.00075753,"MEAN_MOTION_DDOT":4.042958e-6}]
