STARLINK-6201           
1 56486U 23064AQ  26065.85365916  .01056831  58342-3  18281-2 0  9997
2 56486  69.9953 121.5131 0004160 285.5260  74.5493 16.02236801155557
OBJECT H                
1 57011U 23085H   26065.86615370  .00742429  23308-3  20768-2 0  9999
2 57011  97.4631 192.2346 0006779 293.1925  66.8635 15.93621437152129
SHIYAN-25 (SY-25)       
1 57047U 23087A   26065.84186692 -.00018184  20715-5 -32542-4 0  9990
2 57047  96.7187 126.9399 0012995 245.2365 114.7563 16.00933100158436
STARLINK-6151           
1 57118U 23090T   26065.70121414  .03923824  91722-5  80752-3 0  9997
2 57118  42.9651 166.0906 0011271 357.0303   3.0517 16.29944221151409
STARLINK-30210          
1 57292U 23096C   26065.66012006  .01213888  89921-3  12909-2 0  9991
2 57292  42.9612 154.3736 0021992  21.2861  96.7846 16.08937256148025
STARLINK-30232          
1 57303U 23096P   26065.60097521  .02153392  42534-2  22540-2 0  9997
2 57303  42.9685 154.3241 0021245  22.6770 337.5045 16.10033251148004
QIANKUN-1               
1 57422U 23103B   26065.03214507 -.00000311  16834-5  24534-6 0  9997
2 57422  96.1943 116.7916 0032794 171.0368 189.1511 16.08320670150720
OBJECT B                
1 57425U 23104B   26065.84989399  .00341259  47780-4  88740-3 0  9995
2 57425  97.2687 154.4383 0003298 311.8555  48.2439 15.95006754147624
INTUITION-1             
1 58565U 23174CW  26065.83066317  .00491677  97222-4  14240-2 0  9992
2 58565  97.3745 161.9842 0003574 239.3031 120.7891 15.92958943130420
STARLINK-31145          
1 58768U 24011D   26065.83334490  .00500763  11173-3  13035-2 0  9996
2 58768  53.1224  16.8196 0012014  99.3781  29.4820 15.94329824  6018
OBJECT B                
1 59678U 24085B   26065.86836295  .00587979  14749-3  14165-2 0  9992
2 59678  97.3362 158.0271 0010252 297.6976  62.3260 15.96348808102966
OBJECT D                
1 59813U 24095D   26064.05653770  .00589793  14037-3  17801-2 0  9995
2 59813  97.5303 167.7716 0005260 254.9341 105.1351 15.92155338100156
RUZAEVKA 390 (RS44S)    
1 61766U 24199AH  26065.86647914  .01660036  21208-2  17751-2 0  9995
2 61766  97.2791 308.0483 0002675 171.9596 188.1731 16.10678271119073
BANDWAGON-2 OBJECT X    
1 62398U 24247X   26065.40000700  .00892043  35620-3  22315-2 0  9997
2 62398  44.9851  72.4254 0012272  91.4129 268.8186 15.94854751 67972
SZ-19 DEB               
1 63801U 24194E   26065.00535264  .00746324  34478-3  47603-3 0  9990
2 63801  41.4586 184.8975 0011801  20.0500 340.0820 16.16532594 48627
COSMOS 2591             
1 65267U 25182A   26064.73946101  .00075753  40430-5  18326-3 0  9999
2 65267  96.5938 358.0583 0007944 172.1859 187.9545 15.96401340 31193
